[{"OBJECT_NAME":"ONEWEB-0313","OBJECT_ID":"2021-075AA","EPOCH":"2026-03-09T22:38:18.757824","MEAN_MOTION":13.17649082,"ECCENTRICITY":0.00018653,"INCLINATION":87.9154,"RA_OF_ASC_NODE":25.5878,"ARG_OF_PERICENTER":79.1307,"MEAN_ANOMALY":281.0034,"EPHEMERIS_TYPE":0,"CLASSIFICATION_TYPE":"U","NORAD_CAT_ID":49099,"ELEMENT_SET_NO":999,"REV_AT_EPOCH":22052,"BSTAR":0.0005458972,"MEAN_MOTION_DOT":2.25e-6,"MEAN_MOTION_DDOT":0},{"OBJECT_NAME":"SCOUT G-1 DEB","OBJECT_ID":"1988-033J","EPOCH":"2026-03-08T03:12:30.057408","MEAN_MOTION":13.32101194,"ECCENTRICITY":0.02079678,"INCLINATION":90.303,"RA_OF_ASC_NODE":14.1037,"ARG_OF_PERICENTER":233.2992,"MEAN_ANOMALY":190.9198,"EPHEMERIS_TYPE":0,"CLASSIFICATION_TYPE":"U","NORAD_CAT_ID":29362,"ELEMENT_SET_NO":999,"REV_AT_EPOCH":60591,"BSTAR":0.00063505009,"MEAN_MOTION_DOT":3.52e-6,"MEAN_MOTION_DDOT":0}]
